{
  "type": "FeatureCollection",
  "features": [
    {
      "type": "Feature",
      "properties": {
        "norad_id": 30208,
        "name": "FENGYUN 1C DEB",
        "group": "fengyun-1c-debris",
        "lat": -49.35659863235132,
        "lon": -0.645314862435863,
        "alt_km": 803.2880138349756,
        "timestamp": "2025-12-14T07:33:19.752178+00:00",
        "meta_object_name": "FENGYUN 1C DEB",
        "meta_object_id": "1999-025VR",
        "meta_epoch": "2025-12-13T13:49:23.396736",
        "meta_mean_motion": 14.23528652,
        "meta_eccentricity": 0.00329435,
        "meta_inclination": 98.5619,
        "meta_ra_of_asc_node": 348.528,
        "meta_arg_of_pericenter": 267.7936,
        "meta_mean_anomaly": 217.6858,
        "meta_ephemeris_type": 0,
        "meta_classification_type": "U",
        "meta_norad_cat_id": 30208,
        "meta_element_set_no": 999,
        "meta_rev_at_epoch": 97849,
        "meta_bstar": 0.00068381949,
        "meta_mean_motion_dot": 1.522e-05,
        "meta_mean_motion_ddot": 0,
        "tle_line1": "1 30208U 99025VR  25347.57596524  .00001522  00000+0  68382-3 0  9991",
        "tle_line2": "2 30208  98.5619 348.5280 0032943 267.7936 217.6858 14.23528652978496"
      },
      "geometry": {
        "type": "Point",
        "coordinates": [
          -0.645314862435863,
          -49.35659863235132
        ]
      }
    },
    {
      "type": "Feature",
      "properties": {
        "norad_id": 30209,
        "name": "FENGYUN 1C DEB",
        "group": "fengyun-1c-debris",
        "lat": -51.36436177642447,
        "lon": 154.0392694713008,
        "alt_km": 828.4363618345878,
        "timestamp": "2025-12-14T07:33:19.752188+00:00",
        "meta_object_name": "FENGYUN 1C DEB",
        "meta_object_id": "1999-025VS",
        "meta_epoch": "2025-12-12T21:01:36.158016",
        "meta_mean_motion": 14.12903237,
        "meta_eccentricity": 0.00386277,
        "meta_inclination": 98.7142,
        "meta_ra_of_asc_node": 343.7018,
        "meta_arg_of_pericenter": 238.5068,
        "meta_mean_anomaly": 239.8573,
        "meta_ephemeris_type": 0,
        "meta_classification_type": "U",
        "meta_norad_cat_id": 30209,
        "meta_element_set_no": 999,
        "meta_rev_at_epoch": 97208,
        "meta_bstar": 0.00061974364,
        "meta_mean_motion_dot": 1.119e-05,
        "meta_mean_motion_ddot": 0,
        "tle_line1": "1 30209U 99025VS  25346.87611294  .00001119  00000+0  61974-3 0  9998",
        "tle_line2": "2 30209  98.7142 343.7018 0038627 238.5068 239.8573 14.12903237972086"
      },
      "geometry": {
        "type": "Point",
        "coordinates": [
          154.0392694713008,
          -51.36436177642447
        ]
      }
    },
    {
      "type": "Feature",
      "properties": {
        "norad_id": 30210,
        "name": "FENGYUN 1C DEB",
        "group": "fengyun-1c-debris",
        "lat": -33.11091676742369,
        "lon": -147.97010016689362,
        "alt_km": 864.994557417147,
        "timestamp": "2025-12-14T07:33:19.752199+00:00",
        "meta_object_name": "FENGYUN 1C DEB",
        "meta_object_id": "1999-025VT",
        "meta_epoch": "2025-12-13T15:46:25.847040",
        "meta_mean_motion": 14.08270214,
        "meta_eccentricity": 0.00569156,
        "meta_inclination": 99.1907,
        "meta_ra_of_asc_node": 37.4213,
        "meta_arg_of_pericenter": 133.8774,
        "meta_mean_anomaly": 347.0805,
        "meta_ephemeris_type": 0,
        "meta_classification_type": "U",
        "meta_norad_cat_id": 30210,
        "meta_element_set_no": 999,
        "meta_rev_at_epoch": 96770,
        "meta_bstar": 0.00087341337,
        "meta_mean_motion_dot": 1.469e-05,
        "meta_mean_motion_ddot": 0,
        "tle_line1": "1 30210U 99025VT  25347.65724360  .00001469  00000+0  87341-3 0  9990",
        "tle_line2": "2 30210  99.1907  37.4213 0056915 133.8774 347.0805 14.08270214967707"
      },
      "geometry": {
        "type": "Point",
        "coordinates": [
          -147.97010016689362,
          -33.11091676742369
        ]
      }
    },
    {
      "type": "Feature",
      "properties": {
        "norad_id": 30212,
        "name": "FENGYUN 1C DEB",
        "group": "fengyun-1c-debris",
        "lat": 38.41775396243719,
        "lon": -153.8554739377188,
        "alt_km": 969.5441726830404,
        "timestamp": "2025-12-14T07:33:19.752210+00:00",
        "meta_object_name": "FENGYUN 1C DEB",
        "meta_object_id": "1999-025VV",
        "meta_epoch": "2025-12-13T09:01:17.074848",
        "meta_mean_motion": 13.97057033,
        "meta_eccentricity": 0.0096947,
        "meta_inclination": 99.4573,
        "meta_ra_of_asc_node": 212.7755,
        "meta_arg_of_pericenter": 235.5876,
        "meta_mean_anomaly": 123.6091,
        "meta_ephemeris_type": 0,
        "meta_classification_type": "U",
        "meta_norad_cat_id": 30212,
        "meta_element_set_no": 999,
        "meta_rev_at_epoch": 96234,
        "meta_bstar": 0.00034094142,
        "meta_mean_motion_dot": 4.47e-06,
        "meta_mean_motion_ddot": 0,
        "tle_line1": "1 30212U 99025VV  25347.37589207  .00000447  00000+0  34094-3 0  9992",
        "tle_line2": "2 30212  99.4573 212.7755 0096947 235.5876 123.6091 13.97057033962341"
      },
      "geometry": {
        "type": "Point",
        "coordinates": [
          -153.8554739377188,
          38.41775396243719
        ]
      }
    },
    {
      "type": "Feature",
      "properties": {
        "norad_id": 30213,
        "name": "FENGYUN 1C DEB",
        "group": "fengyun-1c-debris",
        "lat": -11.009581956653061,
        "lon": -117.0106338439394,
        "alt_km": 823.4053130534676,
        "timestamp": "2025-12-14T07:33:19.752221+00:00",
        "meta_object_name": "FENGYUN 1C DEB",
        "meta_object_id": "1999-025VW",
        "meta_epoch": "2025-12-13T03:34:06.072960",
        "meta_mean_motion": 14.11580467,
        "meta_eccentricity": 0.00717241,
        "meta_inclination": 99.1224,
        "meta_ra_of_asc_node": 63.5957,
        "meta_arg_of_pericenter": 242.5792,
        "meta_mean_anomaly": 146.4027,
        "meta_ephemeris_type": 0,
        "meta_classification_type": "U",
        "meta_norad_cat_id": 30213,
        "meta_element_set_no": 999,
        "meta_rev_at_epoch": 96521,
        "meta_bstar": 0.0025025403,
        "meta_mean_motion_dot": 4.612e-05,
        "meta_mean_motion_ddot": 0,
        "tle_line1": "1 30213U 99025VW  25347.14868140  .00004612  00000+0  25025-2 0  9995",
        "tle_line2": "2 30213  99.1224  63.5957 0071724 242.5792 146.4027 14.11580467965219"
      },
      "geometry": {
        "type": "Point",
        "coordinates": [
          -117.0106338439394,
          -11.009581956653061
        ]
      }
    },
    {
      "type": "Feature",
      "properties": {
        "norad_id": 30214,
        "name": "FENGYUN 1C DEB",
        "group": "fengyun-1c-debris",
        "lat": 61.90530272531102,
        "lon": -101.81259652200085,
        "alt_km": 779.0486344488272,
        "timestamp": "2025-12-14T07:33:19.752231+00:00",
        "meta_object_name": "FENGYUN 1C DEB",
        "meta_object_id": "1999-025VX",
        "meta_epoch": "2025-12-13T16:36:56.986272",
        "meta_mean_motion": 14.30934578,
        "meta_eccentricity": 0.00207897,
        "meta_inclination": 98.7242,
        "meta_ra_of_asc_node": 60.8459,
        "meta_arg_of_pericenter": 41.9709,
        "meta_mean_anomaly": 109.7248,
        "meta_ephemeris_type": 0,
        "meta_classification_type": "U",
        "meta_norad_cat_id": 30214,
        "meta_element_set_no": 999,
        "meta_rev_at_epoch": 97580,
        "meta_bstar": 0.0020841001,
        "meta_mean_motion_dot": 5.448e-05,
        "meta_mean_motion_ddot": 0,
        "tle_line1": "1 30214U 99025VX  25347.69232623  .00005448  00000+0  20841-2 0  9996",
        "tle_line2": "2 30214  98.7242  60.8459 0020789  41.9709 109.7248 14.30934578975806"
      },
      "geometry": {
        "type": "Point",
        "coordinates": [
          -101.81259652200085,
          61.90530272531102
        ]
      }
    },
    {
      "type": "Feature",
      "properties": {
        "norad_id": 30217,
        "name": "FENGYUN 1C DEB",
        "group": "fengyun-1c-debris",
        "lat": -53.39154230242809,
        "lon": 140.50701424763858,
        "alt_km": 891.6446604186167,
        "timestamp": "2025-12-14T07:33:19.752241+00:00",
        "meta_object_name": "FENGYUN 1C DEB",
        "meta_object_id": "1999-025WA",
        "meta_epoch": "2025-12-13T10:14:52.285920",
        "meta_mean_motion": 14.24835768,
        "meta_eccentricity": 0.01406961,
        "meta_inclination": 98.4312,
        "meta_ra_of_asc_node": 331.1705,
        "meta_arg_of_pericenter": 97.8304,
        "meta_mean_anomaly": 263.8874,
        "meta_ephemeris_type": 0,
        "meta_classification_type": "U",
        "meta_norad_cat_id": 30217,
        "meta_element_set_no": 999,
        "meta_rev_at_epoch": 98083,
        "meta_bstar": 0.00037001628,
        "meta_mean_motion_dot": 9.16e-06,
        "meta_mean_motion_ddot": 0,
        "tle_line1": "1 30217U 99025WA  25347.42699405  .00000916  00000+0  37002-3 0  9998",
        "tle_line2": "2 30217  98.4312 331.1705 0140696  97.8304 263.8874 14.24835768980833"
      },
      "geometry": {
        "type": "Point",
        "coordinates": [
          140.50701424763858,
          -53.39154230242809
        ]
      }
    }
  ]
}